{
  "type": "FeatureCollection",
  "features": [
    {
      "type": "Feature",
      "properties": {
        "norad_id": 43647,
        "name": "BEIDOU-3 M16 (C35)",
        "group": "gnss",
        "lat": 0.8727343993865828,
        "lon": 125.6172384556106,
        "alt_km": 21547.137655839353,
        "timestamp": "2025-12-19T22:41:52.634945+00:00",
        "meta_object_name": "BEIDOU-3 M16 (C35)",
        "meta_object_id": "2018-078A",
        "meta_epoch": "2025-12-18T14:31:23.928384",
        "meta_mean_motion": 1.86232416,
        "meta_eccentricity": 0.00073312,
        "meta_inclination": 54.2565,
        "meta_ra_of_asc_node": 306.3163,
        "meta_arg_of_pericenter": 19.8035,
        "meta_mean_anomaly": 340.2135,
        "meta_ephemeris_type": 0,
        "meta_classification_type": "U",
        "meta_norad_cat_id": 43647,
        "meta_element_set_no": 999,
        "meta_rev_at_epoch": 4879,
        "meta_bstar": 0,
        "meta_mean_motion_dot": -8.1e-07,
        "meta_mean_motion_ddot": 0,
        "tle_line1": "1 43647U 18078A   25352.60513806 -.00000081  00000+0  00000+0 0  9992",
        "tle_line2": "2 43647  54.2565 306.3163 0007331  19.8035 340.2135  1.86232416 48794"
      },
      "geometry": {
        "type": "Point",
        "coordinates": [
          125.6172384556106,
          0.8727343993865828
        ]
      }
    },
    {
      "type": "Feature",
      "properties": {
        "norad_id": 43648,
        "name": "BEIDOU-3 M15 (C34)",
        "group": "gnss",
        "lat": 54.19851160283896,
        "lon": 40.11472804766638,
        "alt_km": 21518.215282767163,
        "timestamp": "2025-12-19T22:41:52.634958+00:00",
        "meta_object_name": "BEIDOU-3 M15 (C34)",
        "meta_object_id": "2018-078B",
        "meta_epoch": "2025-12-19T06:30:41.361984",
        "meta_mean_motion": 1.86232317,
        "meta_eccentricity": 0.0003969,
        "meta_inclination": 54.2518,
        "meta_ra_of_asc_node": 306.2933,
        "meta_arg_of_pericenter": 20.1104,
        "meta_mean_anomaly": 339.8954,
        "meta_ephemeris_type": 0,
        "meta_classification_type": "U",
        "meta_norad_cat_id": 43648,
        "meta_element_set_no": 999,
        "meta_rev_at_epoch": 4882,
        "meta_bstar": 0,
        "meta_mean_motion_dot": -7.6e-07,
        "meta_mean_motion_ddot": 0,
        "tle_line1": "1 43648U 18078B   25353.27131206 -.00000076  00000+0  00000+0 0  9991",
        "tle_line2": "2 43648  54.2518 306.2933 0003969  20.1104 339.8954  1.86232317 48829"
      },
      "geometry": {
        "type": "Point",
        "coordinates": [
          40.11472804766638,
          54.19851160283896
        ]
      }
    },
    {
      "type": "Feature",
      "properties": {
        "norad_id": 43683,
        "name": "BEIDOU-3 G1 (C59)",
        "group": "gnss",
        "lat": 2.5017185808028226,
        "lon": -150.690587418054,
        "alt_km": 35783.18854529341,
        "timestamp": "2025-12-19T22:41:52.634970+00:00",
        "meta_object_name": "BEIDOU-3 G1 (C59)",
        "meta_object_id": "2018-085A",
        "meta_epoch": "2025-12-19T19:03:56.078784",
        "meta_mean_motion": 1.00268797,
        "meta_eccentricity": 0.0001615,
        "meta_inclination": 2.6247,
        "meta_ra_of_asc_node": 102.7592,
        "meta_arg_of_pericenter": 47.0734,
        "meta_mean_anomaly": 4.816,
        "meta_ephemeris_type": 0,
        "meta_classification_type": "U",
        "meta_norad_cat_id": 43683,
        "meta_element_set_no": 999,
        "meta_rev_at_epoch": 2626,
        "meta_bstar": 0,
        "meta_mean_motion_dot": -2.56e-06,
        "meta_mean_motion_ddot": 0,
        "tle_line1": "1 43683U 18085A   25353.79439906 -.00000256  00000+0  00000+0 0  9993",
        "tle_line2": "2 43683   2.6247 102.7592 0001615  47.0734   4.8160  1.00268797 26266"
      },
      "geometry": {
        "type": "Point",
        "coordinates": [
          -150.690587418054,
          2.5017185808028226
        ]
      }
    },
    {
      "type": "Feature",
      "properties": {
        "norad_id": 43687,
        "name": "COSMOS 2529 (757)",
        "group": "gnss",
        "lat": 14.786733685363858,
        "lon": -154.04132011061472,
        "alt_km": 19138.204210694454,
        "timestamp": "2025-12-19T22:41:52.634983+00:00",
        "meta_object_name": "COSMOS 2529 (757)",
        "meta_object_id": "2018-086A",
        "meta_epoch": "2025-12-18T12:23:46.661856",
        "meta_mean_motion": 2.13102105,
        "meta_eccentricity": 0.00070461,
        "meta_inclination": 64.2922,
        "meta_ra_of_asc_node": 198.6932,
        "meta_arg_of_pericenter": 253.6593,
        "meta_mean_anomaly": 106.345,
        "meta_ephemeris_type": 0,
        "meta_classification_type": "U",
        "meta_norad_cat_id": 43687,
        "meta_element_set_no": 999,
        "meta_rev_at_epoch": 5543,
        "meta_bstar": 0,
        "meta_mean_motion_dot": 1.09e-06,
        "meta_mean_motion_ddot": 0,
        "tle_line1": "1 43687U 18086A   25352.51651229  .00000109  00000+0  00000+0 0  9997",
        "tle_line2": "2 43687  64.2922 198.6932 0007046 253.6593 106.3450  2.13102105 55434"
      },
      "geometry": {
        "type": "Point",
        "coordinates": [
          -154.04132011061472,
          14.786733685363858
        ]
      }
    },
    {
      "type": "Feature",
      "properties": {
        "norad_id": 43706,
        "name": "BEIDOU-3 M17 (C36)",
        "group": "gnss",
        "lat": -11.46744734511075,
        "lon": 179.95149891150373,
        "alt_km": 21516.653619638644,
        "timestamp": "2025-12-19T22:41:52.634996+00:00",
        "meta_object_name": "BEIDOU-3 M17 (C36)",
        "meta_object_id": "2018-093A",
        "meta_epoch": "2025-12-19T16:50:45.209760",
        "meta_mean_motion": 1.86228501,
        "meta_eccentricity": 0.0006072,
        "meta_inclination": 54.1746,
        "meta_ra_of_asc_node": 188.3854,
        "meta_arg_of_pericenter": 307.8819,
        "meta_mean_anomaly": 234.4543,
        "meta_ephemeris_type": 0,
        "meta_classification_type": "U",
        "meta_norad_cat_id": 43706,
        "meta_element_set_no": 999,
        "meta_rev_at_epoch": 4819,
        "meta_bstar": 0,
        "meta_mean_motion_dot": 1e-06,
        "meta_mean_motion_ddot": 0,
        "tle_line1": "1 43706U 18093A   25353.70191215  .00000100  00000+0  00000+0 0  9994",
        "tle_line2": "2 43706  54.1746 188.3854 0006072 307.8819 234.4543  1.86228501 48197"
      },
      "geometry": {
        "type": "Point",
        "coordinates": [
          179.95149891150373,
          -11.46744734511075
        ]
      }
    },
    {
      "type": "Feature",
      "properties": {
        "norad_id": 43707,
        "name": "BEIDOU-3 M18 (C37)",
        "group": "gnss",
        "lat": 52.62789156594314,
        "lon": -100.47156807281597,
        "alt_km": 21520.841238831978,
        "timestamp": "2025-12-19T22:41:52.635007+00:00",
        "meta_object_name": "BEIDOU-3 M18 (C37)",
        "meta_object_id": "2018-093B",
        "meta_epoch": "2025-12-16T14:33:42.784416",
        "meta_mean_motion": 1.8622677,
        "meta_eccentricity": 0.00063186,
        "meta_inclination": 54.1735,
        "meta_ra_of_asc_node": 188.4822,
        "meta_arg_of_pericenter": 353.2257,
        "meta_mean_anomaly": 6.8349,
        "meta_ephemeris_type": 0,
        "meta_classification_type": "U",
        "meta_norad_cat_id": 43707,
        "meta_element_set_no": 999,
        "meta_rev_at_epoch": 4813,
        "meta_bstar": 0,
        "meta_mean_motion_dot": 1.15e-06,
        "meta_mean_motion_ddot": 0,
        "tle_line1": "1 43707U 18093B   25350.60674519  .00000115  00000+0  00000+0 0  9990",
        "tle_line2": "2 43707  54.1735 188.4822 0006318 353.2257   6.8349  1.86226770 48131"
      },
      "geometry": {
        "type": "Point",
        "coordinates": [
          -100.47156807281597,
          52.62789156594314
        ]
      }
    },
    {
      "type": "Feature",
      "properties": {
        "norad_id": 43873,
        "name": "GPS BIII-1  (PRN 04)",
        "group": "gnss",
        "lat": -41.419076765062876,
        "lon": 62.08286774606895,
        "alt_km": 20224.17355320202,
        "timestamp": "2025-12-19T22:41:52.635018+00:00",
        "meta_object_name": "GPS BIII-1  (PRN 04)",
        "meta_object_id": "2018-109A",
        "meta_epoch": "2025-12-19T11:24:42.219360",
        "meta_mean_motion": 2.00553941,
        "meta_eccentricity": 0.003755,
        "meta_inclination": 55.5704,
        "meta_ra_of_asc_node": 99.2813,
        "meta_arg_of_pericenter": 195.3177,
        "meta_mean_anomaly": 131.4113,
        "meta_ephemeris_type": 0,
        "meta_classification_type": "U",
        "meta_norad_cat_id": 43873,
        "meta_element_set_no": 999,
        "meta_rev_at_epoch": 5146,
        "meta_bstar": 0,
        "meta_mean_motion_dot": -2.3e-07,
        "meta_mean_motion_ddot": 0,
        "tle_line1": "1 43873U 18109A   25353.47548865 -.00000023  00000+0  00000+0 0  9993",
        "tle_line2": "2 43873  55.5704  99.2813 0037550 195.3177 131.4113  2.00553941 51467"
      },
      "geometry": {
        "type": "Point",
        "coordinates": [
          62.08286774606895,
          -41.419076765062876
        ]
      }
    }
  ]
}